{"type": "FeatureCollection", "licence": "Data © OpenStreetMap contributors, ODbL 1.0. http://osm.org/copyright", "features": [{"type": "Feature", "properties": {"place_id": 171824875, "osm_type": "way", "osm_id": 729511961, "place_rank": 19, "category": "waterway", "type": "river", "importance": 0.14671166781109327, "addresstype": "river", "name": "Свіслач", "display_name": "Свіслач, Пухавіцкі сельскі Савет, Пухавіцкі раён, Мінская вобласць, Беларусь"}, "bbox": [28.3187669, 53.5570555, 28.3202504, 53.5588163], "geometry": {"type": "LineString", "coordinates": [[28.3187669, 53.5588163], [28.3188027, 53.558551], [28.3189989, 53.5584844], [28.3194752, 53.5584567], [28.3198862, 53.5584955], [28.320101, 53.5584179], [28.3202504, 53.5582958], [28.3201851, 53.5580683], [28.3194565, 53.5573748], [28.3194192, 53.5572139], [28.3195217, 53.5570555]]}}]}